STARLINK-2119           
1 47397U 21005BA  26170.89919441  .00041438  00000+0  12135-2 0  9992
2 47397  53.1595 306.8439 0002584 333.2646  26.8223 15.34846106298694
STARLINK-2121           
1 47399U 21005BC  26170.58146744  .00001160  00000+0  49130-4 0  9993
2 47399  53.1595 282.6792 0001067  71.3258 288.7859 15.31703597299006
STARLINK-2122           
1 47400U 21005BD  26170.51109403  .00002097  00000+0  79338-4 0  9993
2 47400  53.1610 259.8406 0001067  60.5609 299.5499 15.31690250299321
STARLINK-2123           
1 47401U 21005BE  26170.56286172 -.00000115  00000+0  80476-5 0  9994
2 47401  53.1607 283.0294 0001321  69.6298 290.4845 15.31702646298999
STARLINK-2128           
1 47404U 21005BH  26170.91668981  .00219426  00000+0  73600-3 0  9993
2 47404  53.0402 228.4408 0006685 359.2248 296.9799 15.88977514  5855
STARLINK-2130           
1 47405U 21005BJ  26170.70445343  .00000747  00000+0  35819-4 0  9991
2 47405  53.1603 307.8403 0001230  54.1739 305.9377 15.31719117298650
STARLINK-2134           
1 47407U 21005BL  26170.78715265  .00011402  00000+0  37826-3 0  9993
2 47407  53.1581 283.8237 0000977  84.4628 275.6485 15.31729727298993
STARLINK-2135           
1 47408U 21005BM  26170.59551237  .00004248  00000+0  14850-3 0  9992
2 47408  53.1583 283.1069 0000873  91.8717 268.2385 15.31716538298991
STARLINK-1954           
1 47555U 21009H   26170.52353286  .00050313  00000+0  11804-2 0  9995
2 47555  53.0487 251.6046 0002252 352.3538   7.7431 15.41582306296610
STARLINK-1958           
1 47559U 21009M   26171.07492417  .01726080  11847-4  78931-3 0  9993
2 47559  53.0224 165.6157 0002431 233.4687 126.6128 16.21244432297858
STARLINK-1962           
1 47563U 21009R   26170.91668981  .00371092  65998-4  91442-3 0  9997
2 47563  53.0332 207.5752 0004063  20.4575 280.3544 15.95500732  5959
STARLINK-1964           
1 47565U 21009T   26170.93455155  .00741708  29482-3  91959-3 0  9993
2 47565  53.0300 175.3807 0002780  23.1251 336.9906 16.07243139297709
STARLINK-1967           
1 47568U 21009W   26170.91668981  .00223917  00000+0  78448-3 0  9993
2 47568  53.0359 216.9080 0003808  25.6739  67.3706 15.88113253  5858
STARLINK-1991           
1 47587U 21009AR  26170.90142747  .00694364  25923-3  82432-3 0  9991
2 47587  53.0287 178.9831 0009196  15.2440 344.8868 16.07833670297657
STARLINK-1994           
1 47589U 21009AT  26170.91668981  .00127259  00000+0  60284-3 0  9997
2 47589  53.0376 218.2715 0003716  26.7796  90.3703 15.82116699  5880
STARLINK-1995           
1 47590U 21009AU  26170.47901204  .00141325  00000+0  69435-3 0  9995
2 47590  53.0359 238.0123 0004118  16.4007 343.7147 15.81280892296799
STARLINK-1997           
1 47592U 21009AW  26170.37061870  .00454142  10057-3  83872-3 0  9994
2 47592  53.0245 210.9669 0012112   9.3733 350.7520 16.00499447297153
STARLINK-2001           
1 47596U 21009BA  26170.91668981  .01104359  00000+0  82088-2 0  9997
2 47596  53.0379 243.1329 0001112  82.7149  76.3438 15.69902569  5907
STARLINK-2021           
1 47604U 21009BJ  26170.32981706  .00487735  11521-3  89580-3 0  9995
2 47604  53.0280 187.0381 0008977  26.0210 334.1269 16.00657648297493
STARLINK-1609           
1 47621U 21012B   26170.74148463  .00060937  00000+0  11863-2 0  9994
2 47621  53.1585 304.0023 0001934 277.0240  83.0548 15.47011413295810
STARLINK-1655           
1 47623U 21012D   26170.93466665  .00548494  14966-3  87139-3 0  9993
2 47623  53.0256 174.3924 0001300  51.3249 308.7898 16.03202209297616
STARLINK-1704           
1 47625U 21012F   26170.91668981  .00007901  00000+0  79352-4 0  9990
2 47625  53.0447 290.9263 0002874 206.3319 280.1362 15.66576794  5840
STARLINK-1972           
1 47627U 21012H   26170.32996985  .00052547  00000+0  52640-3 0  9991
2 47627  53.0442 192.5060 0005075 355.3321   4.7645 15.65032348297289
STARLINK-1973           
1 47628U 21012J   26170.88224394  .00010055  00000+0  33517-3 0  9991
2 47628  53.1582 309.5776 0001241  95.4645 264.6498 15.31718597295744
STARLINK-1983           
1 47630U 21012L   26170.61783505  .00002856  00000+0  10374-3 0  9995
2 47630  53.1583 295.3847 0001135  63.8539 296.2579 15.31711623295892
STARLINK-1992           
1 47632U 21012N   26170.49625202  .00001468  00000+0  59020-4 0  9992
2 47632  53.1603 219.0783 0001249  90.8021 269.3124 15.31716728296957
STARLINK-2015           
1 47638U 21012U   26170.42320876  .00040574  00000+0  11376-2 0  9991
2 47638  53.1547 218.4520 0005958 357.6108   2.4865 15.36205686296952
STARLINK-2019           
1 47641U 21012X   26170.91668981  .00141021  00000+0  65263-3 0  9995
2 47641  53.0364 157.5888 0007308  30.9657 171.0581 15.82543970  5849
STARLINK-2031           
1 47648U 21012AE  26170.64112136 -.00002052  00000+0 -54358-4 0  9994
2 47648  53.1600 295.2348 0000965  70.7285 289.3821 15.31713364295922
STARLINK-2032           
1 47649U 21012AF  26170.91668981  .00239887  32740-4  70024-3 0  9993
2 47649  53.0299 223.3950 0010695  22.8421 205.3727 15.92312462  6023
