OBJECT_NAME,OBJECT_ID,EPOCH,MEAN_MOTION,ECCENTRICITY,INCLINATION,RA_OF_ASC_NODE,ARG_OF_PERICENTER,MEAN_ANOMALY,EPHEMERIS_TYPE,CLASSIFICATION_TYPE,NORAD_CAT_ID,ELEMENT_SET_NO,REV_AT_EPOCH,BSTAR,MEAN_MOTION_DOT,MEAN_MOTION_DDOT
STARLINK-2119,2021-005BA,2026-06-19T21:34:50.397024,15.34846106,.00025848,53.1595,306.8439,333.2646,26.8223,0,U,47397,999,29869,.12134519E-2,.41438E-3,0
STARLINK-2121,2021-005BC,2026-06-19T13:57:18.786816,15.31703597,.00010678,53.1595,282.6792,71.3258,288.7859,0,U,47399,999,29900,.49129821E-4,.116E-4,0
STARLINK-2122,2021-005BD,2026-06-19T12:15:58.524192,15.31690250,.0001067,53.1610,259.8406,60.5609,299.5499,0,U,47400,999,29932,.79338145E-4,.2097E-4,0
STARLINK-2123,2021-005BE,2026-06-19T13:30:31.252608,15.31702646,.00013215,53.1607,283.0294,69.6298,290.4845,0,U,47401,999,29899,.8047637E-5,-.115E-5,0
STARLINK-2128,2021-005BH,2026-06-19T22:00:01.999584,15.88977514,.00066858,53.0402,228.4408,359.2248,296.9799,0,U,47404,999,585,.73599512E-3,.219426E-2,0
STARLINK-2130,2021-005BJ,2026-06-19T16:54:24.776352,15.31719117,.00012306,53.1603,307.8403,54.1739,305.9377,0,U,47405,999,29865,.35818895E-4,.747E-5,0
STARLINK-2134,2021-005BL,2026-06-19T18:53:29.988960,15.31729727,.0000977,53.1581,283.8237,84.4628,275.6485,0,U,47407,999,29899,.37826028E-3,.11402E-3,0
STARLINK-2135,2021-005BM,2026-06-19T14:17:32.268768,15.31716538,.00008732,53.1583,283.1069,91.8717,268.2385,0,U,47408,999,29899,.14849704E-3,.4248E-4,0
STARLINK-1954,2021-009H,2026-06-19T12:33:53.239104,15.41582306,.00022529,53.0487,251.6046,352.3538,7.7431,0,U,47555,999,29661,.11803999E-2,.50313E-3,0
STARLINK-1958,2021-009M,2026-06-20T01:47:53.448288,16.21244432,.0002431,53.0224,165.6157,233.4687,126.6128,0,U,47559,999,29785,.78931E-3,.172608E-1,.11847E-4
STARLINK-1962,2021-009R,2026-06-19T22:00:01.999584,15.95500732,.00040636,53.0332,207.5752,20.4575,280.3544,0,U,47563,999,595,.91441885E-3,.371092E-2,.65998009E-4
STARLINK-1964,2021-009T,2026-06-19T22:25:45.253920,16.07243139,.00027808,53.0300,175.3807,23.1251,336.9906,0,U,47565,999,29770,.91958656E-3,.741708E-2,.29481501E-3
STARLINK-1967,2021-009W,2026-06-19T22:00:01.999584,15.88113253,.00038085,53.0359,216.9080,25.6739,67.3706,0,U,47568,999,585,.78448275E-3,.223917E-2,0
STARLINK-1991,2021-009AR,2026-06-19T21:38:03.333408,16.07833670,.00091969,53.0287,178.9831,15.2440,344.8868,0,U,47587,999,29765,.82431506E-3,.694364E-2,.25923143E-3
STARLINK-1994,2021-009AT,2026-06-19T22:00:01.999584,15.82116699,.00037167,53.0376,218.2715,26.7796,90.3703,0,U,47589,999,588,.60284342E-3,.127259E-2,0
STARLINK-1995,2021-009AU,2026-06-19T11:29:46.640256,15.81280892,.00041189,53.0359,238.0123,16.4007,343.7147,0,U,47590,999,29679,.69435456E-3,.141325E-2,0
STARLINK-1997,2021-009AW,2026-06-19T08:53:41.455680,16.00499447,.00121122,53.0245,210.9669,9.3733,350.7520,0,U,47592,999,29715,.83871857E-3,.454142E-2,.10056952E-3
STARLINK-2001,2021-009BA,2026-06-19T22:00:01.999584,15.69902569,.00011128,53.0379,243.1329,82.7149,76.3438,0,U,47596,999,590,.82087865E-2,.1104359E-1,0
STARLINK-2021,2021-009BJ,2026-06-19T07:54:56.193984,16.00657648,.00089776,53.0280,187.0381,26.0210,334.1269,0,U,47604,999,29749,.8958045E-3,.487735E-2,.11520584E-3
STARLINK-1609,2021-012B,2026-06-19T17:47:44.272032,15.47011413,.00019345,53.1585,304.0023,277.0240,83.0548,0,U,47621,999,29581,.11863101E-2,.60937E-3,0
STARLINK-1655,2021-012D,2026-06-19T22:25:55.198560,16.03202209,.00013006,53.0256,174.3924,51.3249,308.7898,0,U,47623,999,29761,.87138956E-3,.548494E-2,.14965567E-3
STARLINK-1704,2021-012F,2026-06-19T22:00:01.999584,15.66576794,.00028746,53.0447,290.9263,206.3319,280.1362,0,U,47625,999,584,.79351815E-4,.7901E-4,0
STARLINK-1972,2021-012H,2026-06-19T07:55:09.395040,15.65032348,.00050754,53.0442,192.5060,355.3321,4.7645,0,U,47627,999,29728,.5263958E-3,.52547E-3,0
STARLINK-1973,2021-012J,2026-06-19T21:10:25.876416,15.31718597,.00012412,53.1582,309.5776,95.4645,264.6498,0,U,47628,999,29574,.33516558E-3,.10055E-3,0
STARLINK-1983,2021-012L,2026-06-19T14:49:40.948320,15.31711623,.00011355,53.1583,295.3847,63.8539,296.2579,0,U,47630,999,29589,.10374031E-3,.2856E-4,0
STARLINK-1992,2021-012N,2026-06-19T11:54:36.174528,15.31716728,.00012499,53.1603,219.0783,90.8021,269.3124,0,U,47632,999,29695,.59019847E-4,.1468E-4,0
STARLINK-2015,2021-012U,2026-06-19T10:09:25.236864,15.36205686,.00059582,53.1547,218.4520,357.6108,2.4865,0,U,47638,999,29695,.11376147E-2,.40574E-3,0
STARLINK-2019,2021-012X,2026-06-19T22:00:01.999584,15.82543970,.00073083,53.0364,157.5888,30.9657,171.0581,0,U,47641,999,584,.65262705E-3,.141021E-2,0
STARLINK-2031,2021-012AE,2026-06-19T15:23:12.885504,15.31713364,.00009659,53.1600,295.2348,70.7285,289.3821,0,U,47648,999,29592,-.54357599E-4,-.2052E-4,0
STARLINK-2032,2021-012AF,2026-06-19T22:00:01.999584,15.92312462,.00106952,53.0299,223.3950,22.8421,205.3727,0,U,47649,999,602,.70023932E-3,.239887E-2,.32740323E-4
